CTC1_L_00398016-03
1 82901U 24919KJ  26037.47805556  .00000000  00000+0  00000-0 0  9992
2 82901  55.0000 180.0000 0000000   0.0000   0.0000 12.90383911    19
CTC1_L_00398016-04
1 82902U 24646GX  26037.47805556  .00000000  00000+0  00000-0 0  9990
2 82902  55.0000 180.0000 0000000   0.0000  90.0000 12.90383911    19
CTC1_L_00398017-01
1 82903U 24659JI  26037.47805556  .00000000  00000+0  00000-0 0  9995
2 82903  55.0000 192.0000 0000000   0.0000 192.0000 12.90383911    16
CTC1_L_00398017-02
1 82904U 23827TR  26037.47805556  .00000000  00000+0  00000-0 0  9992
2 82904  55.0000 192.0000 0000000   0.0000 282.0000 12.90383911    17
CTC1_L_00398017-03
1 82905U 25251N   26037.47805556  .00000000  00000+0  00000-0 0  9996
2 82905  55.0000 192.0000 0000000   0.0000  12.0000 12.90383911    19
CTC1_L_00398017-04
1 82906U 23292IO  26037.47805556  .00000000  00000+0  00000-0 0  9990
2 82906  55.0000 192.0000 0000000   0.0000 102.0000 12.90383911    10
CTC1_L_00398018-01
1 82907U 22878LG  26037.47805556  .00000000  00000+0  00000-0 0  9990
2 82907  55.0000 204.0000 0000000   0.0000 204.0000 12.90383911    18
CTC1_L_00398018-02
1 82908U 25303HD  26037.47805556  .00000000  00000+0  00000-0 0  9997
2 82908  55.0000 204.0000 0000000   0.0000 294.0000 12.90383911    18
CTC1_L_00398018-03
1 82909U 22567AS  26037.47805556  .00000000  00000+0  00000-0 0  9997
2 82909  55.0000 204.0000 0000000   0.0000  24.0000 12.90383911    10
CTC1_L_00398018-04
1 82910U 23422LC  26037.47805556  .00000000  00000+0  00000-0 0  9990
2 82910  55.0000 204.0000 0000000   0.0000 114.0000 12.90383911    12
CTC1_L_00398019-01
1 82911U 25654VL  26037.47805556  .00000000  00000+0  00000-0 0  9990
2 82911  55.0000 216.0000 0000000   0.0000 216.0000 12.90383911    19
CTC1_L_00398019-02
1 82912U 23756ZG  26037.47805556  .00000000  00000+0  00000-0 0  9992
2 82912  55.0000 216.0000 0000000   0.0000 306.0000 12.90383911    10
CTC1_L_00398019-03
1 82913U 25618MS  26037.47805556  .00000000  00000+0  00000-0 0  9992
2 82913  55.0000 216.0000 0000000   0.0000  36.0000 12.90383911    11
CTC1_L_00398019-04
1 82914U 25089GJ  26037.47805556  .00000000  00000+0  00000-0 0  9995
2 82914  55.0000 216.0000 0000000   0.0000 126.0000 12.90383911    12
CTC1_L_00398020-01
1 82915U 22742U   26037.47805556  .00000000  00000+0  00000-0 0  9999
2 82915  55.0000 228.0000 0000000   0.0000 228.0000 12.90383911    19
CTC1_L_00398020-02
1 82916U 26630LC  26037.47805556  .00000000  00000+0  00000-0 0  9990
2 82916  55.0000 228.0000 0000000   0.0000 318.0000 12.90383911    10
CTC1_L_00398020-03
1 82917U 24226MX  26037.47805556  .00000000  00000+0  00000-0 0  9990
2 82917  55.0000 228.0000 0000000   0.0000  48.0000 12.90383911    11
CTC1_L_00398020-04
1 82918U 25107XH  26037.47805556  .00000000  00000+0  00000-0 0  9990
2 82918  55.0000 228.0000 0000000   0.0000 138.0000 12.90383911    12
CTC1_L_00398021-01
1 82919U 25901XQ  26037.47805556  .00000000  00000+0  00000-0 0  9993
2 82919  55.0000 240.0000 0000000   0.0000 240.0000 12.90383911    11
CTC1_L_00398021-02
1 82920U 23270VY  26037.47805556  .00000000  00000+0  00000-0 0  9992
2 82920  55.0000 240.0000 0000000   0.0000 330.0000 12.90383911    13
CTC1_L_00398021-03
1 82921U 22245HD  26037.47805556  .00000000  00000+0  00000-0 0  9994
2 82921  55.0000 240.0000 0000000   0.0000  60.0000 12.90383911    14
CTC1_L_00398021-04
1 82922U 22328BS  26037.47805556  .00000000  00000+0  00000-0 0  9997
2 82922  55.0000 240.0000 0000000   0.0000 150.0000 12.90383911    15
CTC1_L_00398022-01
1 82923U 23429SS  26037.47805556  .00000000  00000+0  00000-0 0  9991
2 82923  55.0000 252.0000 0000000   0.0000 252.0000 12.90383911    12
CTC1_L_00398022-02
1 82924U 24157MR  26037.47805556  .00000000  00000+0  00000-0 0  9991
2 82924  55.0000 252.0000 0000000   0.0000 342.0000 12.90383911    13
CTC1_L_00398022-03
1 82925U 24478GP  26037.47805556  .00000000  00000+0  00000-0 0  9998
2 82925  55.0000 252.0000 0000000   0.0000  72.0000 12.90383911    14
CTC1_L_00398022-04
1 82926U 25540BT  26037.47805556  .00000000  00000+0  00000-0 0  9990
2 82926  55.0000 252.0000 0000000   0.0000 162.0000 12.90383911    15
CTC1_L_00398023-01
1 82927U 25487GP  26037.47805556  .00000000  00000+0  00000-0 0  9991
2 82927  55.0000 264.0000 0000000   0.0000 264.0000 12.90383911    12
CTC1_L_00398023-02
1 82928U 26021TC  26037.47805556  .00000000  00000+0  00000-0 0  9997
2 82928  55.0000 264.0000 0000000   0.0000 354.0000 12.90383911    13
CTC1_L_00398023-03
1 82929U 25242PZ  26037.47805556  .00000000  00000+0  00000-0 0  9992
2 82929  55.0000 264.0000 0000000   0.0000  84.0000 12.90383911    14
CTC1_L_00398023-04
1 82930U 25571PZ  26037.47805556  .00000000  00000+0  00000-0 0  9999
2 82930  55.0000 264.0000 0000000   0.0000 174.0000 12.90383911    16
CTC1_L_00398024-01
1 82931U 22787UW  26037.47805556  .00000000  00000+0  00000-0 0  9996
2 82931  55.0000 276.0000 0000000   0.0000 276.0000 12.90383911    13
CTC1_L_00398024-02
1 82932U 22401V   26037.47805556  .00000000  00000+0  00000-0 0  9990
2 82932  55.0000 276.0000 0000000   0.0000   6.0000 12.90383911    15
CTC1_L_00398024-03
1 82933U 24284WJ  26037.47805556  .00000000  00000+0  00000-0 0  9992
2 82933  55.0000 276.0000 0000000   0.0000  96.0000 12.90383911    15
CTC1_L_00398024-04
1 82934U 26264TP  26037.47805556  .00000000  00000+0  00000-0 0  9993
2 82934  55.0000 276.0000 0000000   0.0000 186.0000 12.90383911    16
CTC1_L_00398025-01
1 82935U 24011MD  26037.47805556  .00000000  00000+0  00000-0 0  9992
2 82935  55.0000 288.0000 0000000   0.0000 288.0000 12.90383911    13
CTC1_L_00398025-02
1 82936U 22882IP  26037.47805556  .00000000  00000+0  00000-0 0  9997
2 82936  55.0000 288.0000 0000000   0.0000  18.0000 12.90383911    15
CTC1_L_00398025-03
1 82937U 26080LS  26037.47805556  .00000000  00000+0  00000-0 0  9992
2 82937  55.0000 288.0000 0000000   0.0000 108.0000 12.90383911    16
CTC1_L_00398025-04
1 82938U 25912KP  26037.47805556  .00000000  00000+0  00000-0 0  9996
2 82938  55.0000 288.0000 0000000   0.0000 198.0000 12.90383911    16
CTC1_L_00398026-01
1 82939U 25822TR  26037.47805556  .00000000  00000+0  00000-0 0  9997
2 82939  55.0000 300.0000 0000000   0.0000 300.0000 12.90383911    17
CTC1_L_00398026-02
1 82940U 25114OZ  26037.47805556  .00000000  00000+0  00000-0 0  9993
2 82940  55.0000 300.0000 0000000   0.0000  30.0000 12.90383911    19
CTC1_L_00398026-03
1 82941U 26937CM  26037.47805556  .00000000  00000+0  00000-0 0  9998
2 82941  55.0000 300.0000 0000000   0.0000 120.0000 12.90383911    10
CTC1_L_00398026-04
1 82942U 26757RU  26037.47805556  .00000000  00000+0  00000-0 0  9999
2 82942  55.0000 300.0000 0000000   0.0000 210.0000 12.90383911    11
CTC1_L_00398027-01
1 82943U 26500FJ  26037.47805556  .00000000  00000+0  00000-0 0  9996
2 82943  55.0000 312.0000 0000000   0.0000 312.0000 12.90383911    18
CTC1_L_00398027-02
1 82944U 24964UW  26037.47805556  .00000000  00000+0  00000-0 0  9999
2 82944  55.0000 312.0000 0000000   0.0000  42.0000 12.90383911    19
CTC1_L_00398027-03
1 82945U 24352OL  26037.47805556  .00000000  00000+0  00000-0 0  9991
2 82945  55.0000 312.0000 0000000   0.0000 132.0000 12.90383911    10
CTC1_L_00398027-04
1 82946U 25632FW  26037.47805556  .00000000  00000+0  00000-0 0  9994
2 82946  55.0000 312.0000 0000000   0.0000 222.0000 12.90383911    11
CTC1_L_00398028-01
1 82947U 22326CJ  26037.47805556  .00000000  00000+0  00000-0 0  9992
2 82947  55.0000 324.0000 0000000   0.0000 324.0000 12.90383911    18
CTC1_L_00398028-02
1 82948U 22319DM  26037.47805556  .00000000  00000+0  00000-0 0  9995
2 82948  55.0000 324.0000 0000000   0.0000  54.0000 12.90383911    19
CTC1_L_00398028-03
1 82949U 22108HP  26037.47805556  .00000000  00000+0  00000-0 0  9992
2 82949  55.0000 324.0000 0000000   0.0000 144.0000 12.90383911    10
CTC1_L_00398028-04
1 82950U 24570QL  26037.47805556  .00000000  00000+0  00000-0 0  9999
2 82950  55.0000 324.0000 0000000   0.0000 234.0000 12.90383911    12
CTC1_L_00398029-01
1 82951U 22440JF  26037.47805556  .00000000  00000+0  00000-0 0  9994
2 82951  55.0000 336.0000 0000000   0.0000 336.0000 12.90383911    19
CTC1_L_00398029-02
1 82952U 26908YH  26037.47805556  .00000000  00000+0  00000-0 0  9998
2 82952  55.0000 336.0000 0000000   0.0000  66.0000 12.90383911    10
CTC1_L_00398029-03
1 82953U 24801VX  26037.47805556  .00000000  00000+0  00000-0 0  9999
2 82953  55.0000 336.0000 0000000   0.0000 156.0000 12.90383911    11
CTC1_L_00398029-04
1 82954U 23009GC  26037.47805556  .00000000  00000+0  00000-0 0  9999
2 82954  55.0000 336.0000 0000000   0.0000 246.0000 12.90383911    12
CTC1_L_00398030-01
1 82955U 26584TD  26037.47805556  .00000000  00000+0  00000-0 0  9991
2 82955  55.0000 348.0000 0000000   0.0000 348.0000 12.90383911    19
CTC1_L_00398030-02
1 82956U 22607UR  26037.47805556  .00000000  00000+0  00000-0 0  9994
2 82956  55.0000 348.0000 0000000   0.0000  78.0000 12.90383911    10
CTC1_L_00398030-03
1 82957U 26158YP  26037.47805556  .00000000  00000+0  00000-0 0  9990
2 82957  55.0000 348.0000 0000000   0.0000 168.0000 12.90383911    11
CTC1_L_00398030-04
1 82958U 25710EI  26037.47805556  .00000000  00000+0  00000-0 0  9994
2 82958  55.0000 348.0000 0000000   0.0000 258.0000 12.90383911    12
